OBJECT_NAME,OBJECT_ID,EPOCH,MEAN_MOTION,ECCENTRICITY,INCLINATION,RA_OF_ASC_NODE,ARG_OF_PERICENTER,MEAN_ANOMALY,EPHEMERIS_TYPE,CLASSIFICATION_TYPE,NORAD_CAT_ID,ELEMENT_SET_NO,REV_AT_EPOCH,BSTAR,MEAN_MOTION_DOT,MEAN_MOTION_DDOT
ONEWEB-0296,2021-075L,2026-07-05T23:43:06.325824,13.12441655,.00021084,87.8966,346.9284,87.7396,272.3974,0,U,49085,999,23704,.38373632E-3,.151E-5,0
ONEWEB-0297,2021-075M,2026-07-05T22:37:13.371168,13.12443044,.00018931,87.8950,346.9459,91.1111,269.0234,0,U,49086,999,23764,-.76294752E-3,-.262E-5,0
ONEWEB-0298,2021-075N,2026-07-05T22:45:37.691424,13.17648387,.00017903,87.9138,2.1347,87.6986,272.4350,0,U,49087,999,23609,.1469375E-5,.13E-6,0
ONEWEB-0299,2021-075P,2026-07-06T00:37:10.376256,13.17647631,.00019273,87.9148,2.1012,85.6766,274.4585,0,U,49088,999,23608,.12947585E-3,.63E-6,0
ONEWEB-0300,2021-075Q,2026-07-05T22:26:14.510688,13.12442546,.00015233,87.8962,346.9287,87.1236,273.0066,0,U,49089,999,23766,-.99345872E-3,-.345E-5,0
ONEWEB-0301,2021-075R,2026-07-05T23:52:51.148416,13.12441409,.0001475,87.8960,346.9147,92.1244,268.0054,0,U,49090,999,23703,-.1128846E-3,-.28E-6,0
ONEWEB-0302,2021-075S,2026-07-05T23:33:20.405952,13.12441569,.00020993,87.8961,346.9298,96.0880,264.0488,0,U,49091,999,23701,.12432555E-2,.46E-5,0
ONEWEB-0304,2021-075T,2026-07-06T00:00:43.138656,13.17650336,.00019659,87.9137,2.1270,87.0946,273.0411,0,U,49092,999,23605,.15957526E-3,.75E-6,0
ONEWEB-0305,2021-075U,2026-07-05T23:51:00.294624,13.17650058,.00020745,87.9143,2.1142,80.7637,279.3729,0,U,49093,999,23608,.8341864E-4,.45E-6,0
ONEWEB-0308,2021-075V,2026-07-05T23:23:34.893024,13.12442381,.00018231,87.8961,346.9231,94.7197,265.4139,0,U,49094,999,23702,.14790562E-2,.545E-5,0
ONEWEB-0309,2021-075W,2026-07-05T23:55:52.567680,13.17649267,.00023218,87.9136,2.1204,96.8382,263.3013,0,U,49095,999,23605,.9019233E-4,.48E-6,0
ONEWEB-0310,2021-075X,2026-07-05T23:45:32.360832,13.12441457,.00018398,87.8953,346.9398,94.1355,265.9984,0,U,49096,999,23765,.19076258E-3,.81E-6,0
ONEWEB-0311,2021-075Y,2026-07-06T00:05:34.971936,13.17647731,.00019428,87.9137,2.1190,77.8444,282.2905,0,U,49097,999,23610,.56075962E-4,.35E-6,0
ONEWEB-0312,2021-075Z,2026-07-06T00:27:27.747360,13.17647874,.00021398,87.9135,2.1262,86.1700,273.9676,0,U,49098,999,23608,.69624136E-4,.4E-6,0
ONEWEB-0313,2021-075AA,2026-07-05T22:45:12.472128,13.17649772,.0001903,87.9134,2.1456,86.7761,273.3588,0,U,49099,999,23606,.47105228E-4,.31E-6,0
ONEWEB-0314,2021-075AB,2026-07-05T23:46:09.576768,13.17649969,.00022032,87.9144,2.1121,84.7189,275.4194,0,U,49100,999,23604,.9164262E-4,.48E-6,0
ONEWEB-0315,2021-075AC,2026-07-05T23:06:30.429216,13.12442748,.00017673,87.8959,346.9110,81.7824,278.3505,0,U,49101,999,23763,.91020413E-3,.34E-5,0
ONEWEB-0316,2021-075AD,2026-07-05T21:36:26.709696,13.18686411,.00019192,87.9184,331.7336,97.0295,263.1055,0,U,49102,999,23967,.20055144E-3,.92E-6,0
ONEWEB-0317,2021-075AE,2026-07-05T23:11:23.313120,13.12442717,.00022239,87.8960,346.9345,111.8831,248.2534,0,U,49103,999,23765,.96985823E-3,.362E-5,0
ONEWEB-0318,2021-075AF,2026-07-05T19:42:19.841472,13.18686054,.00018613,87.9186,331.7515,90.7130,269.4216,0,U,49104,999,23962,-.10610395E-4,.9E-7,0
ONEWEB-0319,2021-075AG,2026-07-06T00:08:00.806496,13.17650518,.00017444,87.9135,2.1236,74.0587,286.0737,0,U,49105,999,23608,.22405257E-3,.1E-5,0
ONEWEB-0323,2021-075AH,2026-07-05T22:44:32.740224,13.12443100,.00019047,87.8961,346.9192,77.3084,282.8258,0,U,49106,999,23701,-.52877156E-3,-.178E-5,0
ONEWEB-0329,2021-075AJ,2026-07-06T00:20:10.226400,13.17649820,.00019822,87.9137,2.1229,87.5094,272.6264,0,U,49107,999,23606,.1475971E-5,.13E-6,0
ONEWEB-0330,2021-075AK,2026-07-06T05:54:51.988320,13.18754322,.00021622,87.9141,2.0886,89.4549,270.6831,0,U,49108,999,23613,-.1111116E+0,-.43627E-3,0
ONEWEB-0292,2021-083A,2026-07-05T21:43:33.000384,13.13469133,.00018355,87.8969,316.5116,94.9499,265.1840,0,U,49186,999,23338,.25303424E-3,.105E-5,0
ONEWEB-0303,2021-083B,2026-07-05T23:15:58.682880,13.18687892,.00018309,87.9185,331.7204,90.8859,269.2483,0,U,49187,999,23245,.24388602E-3,.109E-5,0
ONEWEB-0306,2021-083C,2026-07-05T23:01:24.574080,13.18684015,.00019881,87.9190,331.7108,102.4248,257.7107,0,U,49188,999,23249,.59546333E-4,.36E-6,0
ONEWEB-0307,2021-083D,2026-07-05T19:45:19.069632,13.13472186,.00021631,87.8972,316.5258,100.6162,259.5211,0,U,49189,999,23337,-.22998052E-3,-.71E-6,0
ONEWEB-0320,2021-083E,2026-07-05T21:41:17.517408,13.18686789,.00018841,87.9177,331.7381,97.8549,262.2797,0,U,49190,999,23244,.10860714E-3,.56E-6,0
ONEWEB-0321,2021-083F,2026-07-06T07:00:06.367104,13.20774085,.00021565,87.9192,270.6281,106.6531,253.4839,0,U,49191,999,23935,.3367374E-5,.14E-6,0
ONEWEB-0322,2021-083G,2026-07-05T19:39:14.580864,13.13469442,.00018005,87.8972,316.5267,112.9764,247.1555,0,U,49192,999,23336,.70975412E-3,.272E-5,0
ONEWEB-0324,2021-083H,2026-07-05T22:51:43.354368,13.18686074,.00020679,87.9190,331.7177,96.1669,263.9699,0,U,49193,999,23247,.35040873E-4,.27E-6,0
ONEWEB-0325,2021-083J,2026-07-05T22:56:34.301184,13.18686585,.00017895,87.9180,331.7233,96.6514,263.4822,0,U,49194,999,23248,.13784851E-3,.67E-6,0
ONEWEB-0326,2021-083K,2026-07-05T21:29:22.715520,13.18685921,.00017606,87.9188,331.7351,88.2930,271.8404,0,U,49195,999,23246,.91466665E-4,.49E-6,0
ONEWEB-0327,2021-083L,2026-07-05T21:28:58.466496,13.18685830,.00015807,87.9179,331.7378,86.6898,273.4415,0,U,49196,999,23248,.12674491E-3,.63E-6,0
ONEWEB-0328,2021-083M,2026-07-05T21:14:18.428928,13.13469295,.0002041,87.8980,316.4883,98.0212,262.1149,0,U,49197,999,23335,.10845667E-2,.409E-5,0
ONEWEB-0331,2021-083N,2026-07-05T23:08:41.504064,13.18684599,.00018452,87.9189,331.7152,85.3711,274.7632,0,U,49198,999,23248,.19499227E-3,.9E-6,0
ONEWEB-0333,2021-083P,2026-07-05T21:06:59.463360,13.13470143,.00018274,87.8971,316.5138,98.6070,261.5266,0,U,49199,999,23336,.89425072E-3,.339E-5,0
ONEWEB-0334,2021-083Q,2026-07-06T05:31:36.339744,13.20774300,.00021163,87.9193,270.6503,122.2970,237.8368,0,U,49200,999,23930,.32884207E-4,.26E-6,0
ONEWEB-0335,2021-083R,2026-07-05T19:09:57.530592,13.13471971,.00019017,87.8969,316.5273,93.5647,266.5700,0,U,49201,999,23336,.50579697E-3,.197E-5,0
ONEWEB-0336,2021-083S,2026-07-05T20:18:13.011552,13.13478217,.00019847,87.8971,316.5135,89.6690,270.4667,0,U,49202,999,23336,.18647522E-2,.694E-5,0
ONEWEB-0337,2021-083T,2026-07-05T20:32:39.665760,13.13469108,.0002083,87.8967,316.5170,95.7981,264.3386,0,U,49203,999,23336,-.7364951E-3,-.256E-5,0
ONEWEB-0338,2021-083U,2026-07-06T06:47:58.642368,13.20770585,.00019631,87.9184,270.6420,108.6103,251.5244,0,U,49204,999,23933,.25061473E-3,.115E-5,0
ONEWEB-0339,2021-083V,2026-07-05T20:45:02.342016,13.13469341,.00019853,87.8971,316.5081,107.7241,252.4105,0,U,49205,999,23334,-.19280979E-3,-.58E-6,0
ONEWEB-0340,2021-083W,2026-07-05T22:49:17.563872,13.18687415,.00018933,87.9189,331.7235,91.9543,268.1806,0,U,49206,999,23244,.4212334E-4,.3E-6,0
ONEWEB-0341,2021-083X,2026-07-05T22:59:00.034656,13.18687468,.00023635,87.9183,331.7240,94.1198,266.0204,0,U,49207,999,23246,.29800791E-3,.13E-5,0
ONEWEB-0342,2021-083Y,2026-07-06T06:57:42.111936,13.20772529,.00020954,87.9192,270.6305,102.5660,257.5707,0,U,49208,999,23930,.43414255E-4,.31E-6,0
ONEWEB-0343,2021-083Z,2026-07-05T21:21:53.077824,13.18687129,.0002035,87.9183,331.7368,107.6021,252.5333,0,U,49209,999,23250,.72604916E-4,.42E-6,0
ONEWEB-0344,2021-083AA,2026-07-05T20:37:43.557888,13.13469173,.00022558,87.8967,316.5219,96.9542,263.1844,0,U,49210,999,23334,-.3814632E-3,-.127E-5,0
ONEWEB-0345,2021-083AB,2026-07-05T22:15:14.094144,13.13469371,.00022362,87.8980,316.4927,97.5903,262.5480,0,U,49211,999,23336,-.6408873E-3,-.221E-5,0
ONEWEB-0346,2021-083AC,2026-07-05T21:17:01.615200,13.18686911,.00018133,87.9178,331.7368,75.8064,284.3269,0,U,49212,999,23244,.76486445E-4,.43E-6,0
ONEWEB-0348,2021-083AD,2026-07-06T06:43:09.651648,13.20772107,.00022845,87.9195,270.6368,86.6663,273.4732,0,U,49213,999,23933,.11986872E-3,.62E-6,0
ONEWEB-0350,2021-083AE,2026-07-05T20:52:22.213056,13.13456223,.00011446,87.8991,316.5073,138.5390,221.5826,0,U,49214,999,23338,-.56571984E-2,-.2052E-4,0
ONEWEB-0351,2021-083AF,2026-07-06T04:44:09.068352,13.20770230,.0002545,87.9192,270.6520,109.9489,250.1918,0,U,49215,999,23928,.13306871E-3,.67E-6,0
ONEWEB-0352,2021-083AG,2026-07-05T22:00:36.428256,13.13468070,.00021157,87.8974,316.5043,109.9891,250.1466,0,U,49216,999,23348,-.71301085E-3,-.248E-5,0
ONEWEB-0354,2021-083AH,2026-07-06T07:12:14.231808,13.20784735,.00024061,87.9193,270.6303,91.7946,268.3463,0,U,49217,999,23933,-.63122498E-2,-.2553E-4,0
ONEWEB-0355,2021-083AJ,2026-07-05T20:52:53.727456,13.13348263,.00024054,87.8974,316.5152,94.5918,265.5486,0,U,49218,999,23335,-.26529696E-1,-.9648E-4,0
ONEWEB-0357,2021-083AK,2026-07-06T05:18:16.515072,13.20773922,.00021949,87.9192,270.6400,103.9253,256.2124,0,U,49219,999,23932,.58093677E-4,.37E-6,0
ONEWEB-0332,2021-090A,2026-07-06T05:57:14.467968,13.14502583,.00018806,87.8969,285.9111,106.2259,253.9078,0,U,49279,999,23008,.35167443E-3,.143E-5,0
ONEWEB-0347,2021-090B,2026-07-06T06:52:49.243584,13.20773679,.00018317,87.9198,270.6341,109.4776,250.6555,0,U,49280,999,23356,-.26117426E-2,-.1049E-4,0
ONEWEB-0349,2021-090C,2026-07-06T05:49:47.840448,13.20774466,.00021198,87.9194,270.6444,99.4398,260.6975,0,U,49281,999,23234,.23017401E-3,.107E-5,0
ONEWEB-0353,2021-090D,2026-07-06T07:35:25.772928,13.14502512,.00018447,87.8973,285.8934,106.9263,253.2069,0,U,49282,999,23009,-.12304593E-3,-.33E-6,0
ONEWEB-0356,2021-090E,2026-07-06T05:47:22.612416,13.20769862,.00014311,87.9192,270.6379,81.6547,278.4748,0,U,49283,999,23234,.20974461E-3,.98E-6,0
ONEWEB-0358,2021-090F,2026-07-06T04:50:13.333344,13.20777869,.0002013,87.9193,270.6532,94.6662,265.4701,0,U,49284,999,23306,.11076651E-3,.58E-6,0
ONEWEB-0359,2021-090G,2026-07-06T04:37:03.824832,13.20769619,.00021933,87.9193,270.6477,92.9090,267.2295,0,U,49285,999,23304,.2691408E-3,.122E-5,0
